LEGION 1                
1 59625U 24081A   24150.94485663  .00007780  00000+0  40318-3 0  9999
2 59625  97.5761 222.0389 0004882  84.4192 275.7598 15.16452410  4118
